*******************************************************************************
Ephemeris / WWW_USER Mon Mar 24 09:08:43 2025 Pasadena, USA      / Horizons    
*******************************************************************************
Target body name: Lemmon (C/2018 EF9)             {source: JPL#18}
Center body name: Earth (399)                     {source: DE441}
Center-site name: Mauna Kea
*******************************************************************************
Start time      : A.D. 2018-Sep-04 04:44:00.0000 UT      
Stop  time      : A.D. 2018-Sep-04 15:57:00.0000 UT      
Step-size       : 1 minutes
*******************************************************************************
Target pole/equ : undefined
Target radii    : undefined                                                    
Center geodetic : 204.5278, 19.8260847, 4.21024   {E-lon(deg),Lat(deg),Alt(km)}
Center cylindric: 204.5278, 6006.35451, 2151.0229 {E-lon(deg),Dxy(km),Dz(km)}
Center pole/equ : ITRF93                          {East-longitude positive}
Center radii    : 6378.137, 6378.137, 6356.752 km {Equator_a, b, pole_c}       
Target primary  : Sun
Vis. interferer : MOON (R_eq= 1737.400) km        {source: DE441}
Rel. light bend : Sun                             {source: DE441}
Rel. lght bnd GM: 1.3271E+11 km^3/s^2                                          
Small-body perts: Yes                             {source: SB441-N16}
Atmos refraction: NO (AIRLESS)
RA format       : HMS
Time format     : CAL 
Calendar mode   : Mixed Julian/Gregorian
RTS-only print  : NO       
EOP file        : eop.250321.p250617                                           
EOP coverage    : DATA-BASED 1962-JAN-20 TO 2025-MAR-21. PREDICTS-> 2025-JUN-16
Units conversion: 1 au= 149597870.700 km, c= 299792.458 km/s, 1 day= 86400.0 s 
Table cut-offs 1: Elevation (-90.0deg=NO ),Airmass (>38.000=NO), Daylight (YES)
Table cut-offs 2: Solar elongation (  0.0,180.0=NO ),Local Hour Angle( 0.0=NO )
Table cut-offs 3: RA/DEC angular rate (     0.0=NO )                           
*******************************************************************************
Initial IAU76/J2000 heliocentric ecliptic osculating elements (au, days, deg.):
  EPOCH=  2458226.5 ! 2018-Apr-18.0000000 (TDB)    RMSW= n.a.                  
   EC= .9975741722198472   QR= 1.55663257903246    TP= 2458261.6283815675      
   OM= 172.5780664128357   W= 72.61657512148747    IN= 84.69445280104227       
  Equivalent ICRF heliocentric cartesian coordinates (au, au/d):
   X=-1.091857230976521E+00  Y=-4.544188696153424E-01  Z= 1.120998862172552E+00
  VX= 1.630642470498751E-02 VY=-6.481787118028984E-03 VZ= 7.403953065693920E-03
Comet physical (GM= km^3/s^2; RAD= km):                                        
   GM= n.a.                RAD= n.a.                                           
   M1=  8.6      M2=  17.8     k1=  45.25  k2=  5.      PHCOF=  .030           
*******************************************************************************
 Date__(UT)__HR:MN     R.A._________(ICRF)_________DEC
******************************************************
$$SOE
 2018-Sep-04 08:54     20 25 33.250845 +61 28 24.83393
 2018-Sep-04 08:55     20 25 33.248089 +61 28 22.87705
 2018-Sep-04 08:56     20 25 33.245338 +61 28 20.92007
 2018-Sep-04 08:57     20 25 33.242592 +61 28 18.96298
 2018-Sep-04 08:58     20 25 33.239851 +61 28 17.00581
 2018-Sep-04 08:59     20 25 33.237116 +61 28 15.04853
 2018-Sep-04 09:00     20 25 33.234386 +61 28 13.09115
 2018-Sep-04 09:01     20 25 33.231661 +61 28 11.13368
 2018-Sep-04 09:02     20 25 33.228942 +61 28 09.17611
 2018-Sep-04 09:03     20 25 33.226228 +61 28 07.21844
 2018-Sep-04 09:04     20 25 33.223520 +61 28 05.26068
 2018-Sep-04 09:05     20 25 33.220817 +61 28 03.30281
 2018-Sep-04 09:06     20 25 33.218120 +61 28 01.34485
 2018-Sep-04 09:07     20 25 33.215429 +61 27 59.38679
 2018-Sep-04 09:08     20 25 33.212743 +61 27 57.42864
 2018-Sep-04 09:09     20 25 33.210064 +61 27 55.47039
 2018-Sep-04 09:10     20 25 33.207390 +61 27 53.51204
 2018-Sep-04 09:11     20 25 33.204722 +61 27 51.55359
 2018-Sep-04 09:12     20 25 33.202060 +61 27 49.59505
 2018-Sep-04 09:13     20 25 33.199405 +61 27 47.63642
 2018-Sep-04 09:14     20 25 33.196755 +61 27 45.67768
 2018-Sep-04 09:15     20 25 33.194112 +61 27 43.71885
 2018-Sep-04 09:16     20 25 33.191475 +61 27 41.75992
 2018-Sep-04 09:17     20 25 33.188844 +61 27 39.80090
 2018-Sep-04 09:18     20 25 33.186219 +61 27 37.84178
 2018-Sep-04 09:19     20 25 33.183601 +61 27 35.88257
 2018-Sep-04 09:20     20 25 33.180990 +61 27 33.92326
 2018-Sep-04 09:21     20 25 33.178384 +61 27 31.96386
 2018-Sep-04 09:22     20 25 33.175786 +61 27 30.00436
 2018-Sep-04 09:23     20 25 33.173194 +61 27 28.04476
 2018-Sep-04 09:24     20 25 33.170609 +61 27 26.08507
 2018-Sep-04 09:25     20 25 33.168031 +61 27 24.12529
 2018-Sep-04 09:26     20 25 33.165459 +61 27 22.16541
 2018-Sep-04 09:27     20 25 33.162894 +61 27 20.20543
 2018-Sep-04 09:28     20 25 33.160336 +61 27 18.24537
 2018-Sep-04 09:29     20 25 33.157786 +61 27 16.28520
 2018-Sep-04 09:30     20 25 33.155242 +61 27 14.32495
 2018-Sep-04 09:31     20 25 33.152705 +61 27 12.36460
 2018-Sep-04 09:32     20 25 33.150175 +61 27 10.40415
 2018-Sep-04 09:33     20 25 33.147653 +61 27 08.44362
 2018-Sep-04 09:34     20 25 33.145138 +61 27 06.48299
 2018-Sep-04 09:35     20 25 33.142630 +61 27 04.52226
 2018-Sep-04 09:36     20 25 33.140130 +61 27 02.56145
 2018-Sep-04 09:37     20 25 33.137637 +61 27 00.60054
 2018-Sep-04 09:38     20 25 33.135151 +61 26 58.63953
 2018-Sep-04 09:39     20 25 33.132673 +61 26 56.67844
 2018-Sep-04 09:40     20 25 33.130203 +61 26 54.71725
 2018-Sep-04 09:41     20 25 33.127740 +61 26 52.75597
 2018-Sep-04 09:42     20 25 33.125285 +61 26 50.79460
 2018-Sep-04 09:43     20 25 33.122838 +61 26 48.83314
 2018-Sep-04 09:44     20 25 33.120398 +61 26 46.87158
 2018-Sep-04 09:45     20 25 33.117966 +61 26 44.90994
 2018-Sep-04 09:46     20 25 33.115543 +61 26 42.94820
 2018-Sep-04 09:47     20 25 33.113127 +61 26 40.98637
 2018-Sep-04 09:48     20 25 33.110719 +61 26 39.02445
 2018-Sep-04 09:49     20 25 33.108319 +61 26 37.06244
 2018-Sep-04 09:50     20 25 33.105928 +61 26 35.10034
 2018-Sep-04 09:51     20 25 33.103544 +61 26 33.13815
 2018-Sep-04 09:52     20 25 33.101169 +61 26 31.17587
 2018-Sep-04 09:53     20 25 33.098802 +61 26 29.21350
 2018-Sep-04 09:54     20 25 33.096444 +61 26 27.25103
 2018-Sep-04 09:55     20 25 33.094094 +61 26 25.28848
 2018-Sep-04 09:56     20 25 33.091752 +61 26 23.32584
 2018-Sep-04 09:57     20 25 33.089419 +61 26 21.36311
 2018-Sep-04 09:58     20 25 33.087094 +61 26 19.40030
 2018-Sep-04 09:59     20 25 33.084778 +61 26 17.43739
 2018-Sep-04 10:00     20 25 33.082471 +61 26 15.47439
 2018-Sep-04 10:01     20 25 33.080172 +61 26 13.51131
 2018-Sep-04 10:02     20 25 33.077882 +61 26 11.54813
 2018-Sep-04 10:03     20 25 33.075601 +61 26 09.58487
 2018-Sep-04 10:04     20 25 33.073329 +61 26 07.62153
 2018-Sep-04 10:05     20 25 33.071066 +61 26 05.65809
 2018-Sep-04 10:06     20 25 33.068811 +61 26 03.69457
 2018-Sep-04 10:07     20 25 33.066566 +61 26 01.73095
 2018-Sep-04 10:08     20 25 33.064330 +61 25 59.76726
 2018-Sep-04 10:09     20 25 33.062103 +61 25 57.80347
 2018-Sep-04 10:10     20 25 33.059885 +61 25 55.83960
 2018-Sep-04 10:11     20 25 33.057676 +61 25 53.87564
 2018-Sep-04 10:12     20 25 33.055476 +61 25 51.91160
 2018-Sep-04 10:13     20 25 33.053286 +61 25 49.94747
 2018-Sep-04 10:14     20 25 33.051105 +61 25 47.98326
 2018-Sep-04 10:15     20 25 33.048934 +61 25 46.01896
 2018-Sep-04 10:16     20 25 33.046772 +61 25 44.05457
 2018-Sep-04 10:17     20 25 33.044620 +61 25 42.09010
 2018-Sep-04 10:18     20 25 33.042477 +61 25 40.12554
 2018-Sep-04 10:19     20 25 33.040343 +61 25 38.16090
 2018-Sep-04 10:20     20 25 33.038220 +61 25 36.19618
 2018-Sep-04 10:21     20 25 33.036106 +61 25 34.23137
 2018-Sep-04 10:22     20 25 33.034002 +61 25 32.26648
 2018-Sep-04 10:23     20 25 33.031908 +61 25 30.30150
 2018-Sep-04 10:24     20 25 33.029823 +61 25 28.33644
 2018-Sep-04 10:25     20 25 33.027749 +61 25 26.37130
 2018-Sep-04 10:26     20 25 33.025684 +61 25 24.40608
 2018-Sep-04 10:27     20 25 33.023630 +61 25 22.44077
 2018-Sep-04 10:28     20 25 33.021585 +61 25 20.47538
 2018-Sep-04 10:29     20 25 33.019551 +61 25 18.50990
 2018-Sep-04 10:30     20 25 33.017527 +61 25 16.54435
 2018-Sep-04 10:31     20 25 33.015512 +61 25 14.57871
 2018-Sep-04 10:32     20 25 33.013509 +61 25 12.61300
 2018-Sep-04 10:33     20 25 33.011515 +61 25 10.64720
 2018-Sep-04 10:34     20 25 33.009532 +61 25 08.68132
 2018-Sep-04 10:35     20 25 33.007559 +61 25 06.71535
 2018-Sep-04 10:36     20 25 33.005597 +61 25 04.74931
 2018-Sep-04 10:37     20 25 33.003645 +61 25 02.78319
 2018-Sep-04 10:38     20 25 33.001704 +61 25 00.81699
 2018-Sep-04 10:39     20 25 32.999773 +61 24 58.85071
 2018-Sep-04 10:40     20 25 32.997853 +61 24 56.88435
 2018-Sep-04 10:41     20 25 32.995943 +61 24 54.91791
 2018-Sep-04 10:42     20 25 32.994044 +61 24 52.95139
 2018-Sep-04 10:43     20 25 32.992156 +61 24 50.98479
 2018-Sep-04 10:44     20 25 32.990279 +61 24 49.01812
 2018-Sep-04 10:45  m  20 25 32.988412 +61 24 47.05136
 2018-Sep-04 10:46  m  20 25 32.986557 +61 24 45.08453
 2018-Sep-04 10:47  m  20 25 32.984712 +61 24 43.11762
 2018-Sep-04 10:48  m  20 25 32.982878 +61 24 41.15063
 2018-Sep-04 10:49  m  20 25 32.981056 +61 24 39.18357
 2018-Sep-04 10:50  m  20 25 32.979244 +61 24 37.21643
 2018-Sep-04 10:51  m  20 25 32.977444 +61 24 35.24921
 2018-Sep-04 10:52  m  20 25 32.975654 +61 24 33.28191
 2018-Sep-04 10:53  m  20 25 32.973876 +61 24 31.31454
 2018-Sep-04 10:54  m  20 25 32.972109 +61 24 29.34710
 2018-Sep-04 10:55  m  20 25 32.970354 +61 24 27.37958
 2018-Sep-04 10:56  m  20 25 32.968609 +61 24 25.41198
 2018-Sep-04 10:57  m  20 25 32.966876 +61 24 23.44431
 2018-Sep-04 10:58  m  20 25 32.965155 +61 24 21.47656
